LINGQIAO VIDEO A        
1 40959U 15057B   26132.19410699  .00000137  00000+0  25999-4 0  9996
2 40959  97.6624 128.7753 0017716  31.0286 329.1968 14.77340441570092
LINGQIAO VIDEO B        
1 40960U 15057C   26132.24108179  .00000890  00000+0  13151-3 0  9993
2 40960  97.6591 129.9929 0017868  31.0635 329.1629 14.77447618570145
JILIN-1                 
1 40961U 15057D   26132.13516662  .00000529  00000+0  79725-4 0  9991
2 40961  97.6512 133.2944 0017632  25.9780 334.2313 14.78098837570284
FOX-1A (AO-85)          
1 40967U 15058D   26132.06250894  .00002101  00000+0  19751-3 0  9992
2 40967  64.7768  31.2284 0128946  70.7546 290.7464 14.90752582108188
SINOD-D 1               
1 40968U 15058E   26132.04085309  .00002917  00000+0  24226-3 0  9996
2 40968  64.7770  12.0834 0117423  67.5591 293.7910 14.95618001111255
ELEKTRO-L 2             
1 41105U 15074A   26132.17707605 -.00000102  00000+0  00000+0 0  9997
2 41105   6.6035  70.9556 0001518 273.4476 294.7910  1.00272976 38145
DAMPE                   
1 41173U 15078A   26132.21478807  .00000578  00000+0  22073-4 0  9995
2 41173  97.4572 137.5076 0011214 195.9316 164.1573 15.30692102579045
ORBCOMM FM114           
1 41179U 15081A   26131.81688121  .00000155  00000+0  68984-4 0  9994
2 41179  47.0034 173.9533 0001818   3.4905 356.5993 14.58816736552441
ORBCOMM FM110           
1 41182U 15081D   26131.80560035  .00000219  00000+0  82755-4 0  9993
2 41182  47.0003 173.4573 0004052 267.4531  92.5891 14.58820822552311
ORBCOMM FM112           
1 41184U 15081F   26132.11879632  .00000330  00000+0  10634-3 0  9996
2 41184  46.9986  80.7922 0002390  29.4996 330.6024 14.58755259553689
ORBCOMM FM113           
1 41185U 15081G   26132.16319764  .00000230  00000+0  84886-4 0  9997
2 41185  47.0005  80.9450 0001408   9.3378 350.7534 14.58817238553676
ORBCOMM FM108           
1 41187U 15081J   26131.98880404  .00000395  00000+0  12001-3 0  9993
2 41187  47.0064 353.3349 0002326  22.9425 337.1564 14.58818501554791
ORBCOMM FM117           
1 41188U 15081K   26132.02273775  .00000376  00000+0  11594-3 0  9992
2 41188  47.0027 351.8193 0002734  31.3633 328.7415 14.58816441554847
ORBCOMM FM116           
1 41189U 15081L   26131.59252456  .00000187  00000+0  75882-4 0  9998
2 41189  47.0021  83.6406 0002390 271.4008  88.6604 14.58824755553590
HORYU-4                 
1 41340U 16012D   26131.66552011  .00123350  00000+0  69385-3 0  9998
2 41340  30.9894 342.9931 0005642  13.7022 346.3788 15.77715483565014
ZIYUAN 3-02 (ZY 3-02)   
1 41556U 16033A   26132.14627672  .00003374  00000+0  15296-3 0  9995
2 41556  97.3840 208.6093 0013814  65.3320 294.9353 15.21443091552500
CARTOSAT-2C             
1 41599U 16040A   26132.16467079  .00003141  00000+0  15239-3 0  9994
2 41599  97.4507 192.6321 0008356 258.0805 101.9492 15.19199320548245
LAPAN-A3                
1 41603U 16040E   26132.22476596  .00002290  00000+0  74342-4 0  9996
2 41603  97.1489 129.5605 0011628 136.9814 223.2340 15.32874842549303
GAOFEN-3                
1 41727U 16049A   26132.21547222  .00000082  00000+0  37979-4 0  9998
2 41727  98.4028 140.5441 0000967  75.7410 284.3887 14.42210701513460
CAS-2T & KS-1Q          
1 41847U 16066G   26132.08457675  .00000509  00000+0  81571-4 0  9998
2 41847  98.3824 208.2293 0341043 239.0044 117.7235 14.44589847499588
YUNHAI-1 01             
1 41857U 16068A   26132.19972652  .00000398  00000+0  16249-3 0  9995
2 41857  98.5852 143.5406 0006196 130.8407 229.3315 14.32713858496671
RESOURCESAT-2A          
1 41877U 16074A   26132.17575416  .00000161  00000+0  93544-4 0  9991
2 41877  98.7529 205.9722 0002460 154.7227 205.4071 14.21605431489182
TANSAT                  
1 41898U 16081A   26132.12983264  .00000384  00000+0  90537-4 0  9997
2 41898  98.5373 131.3238 0021780  62.0423 298.2977 14.59919789499360
JILIN-1 03              
1 41914U 17002B   26132.18399449  .00008254  00000+0  20416-3 0  9994
2 41914  97.1963 139.8001 0003940 317.2561  42.8379 15.40698309516313
CARTOSAT-2D             
1 41948U 17008A   26132.19725669  .00002476  00000+0  12080-3 0  9993
2 41948  97.4129 192.1691 0004918  21.6105 338.5336 15.19215902512112
CARTOSAT-2E             
1 42767U 17036C   26132.14876650  .00002802  00000+0  13594-3 0  9990
2 42767  97.4299 192.5392 0004432  81.9517 278.2221 15.19302504492675
