OBJECT_NAME,OBJECT_ID,EPOCH,MEAN_MOTION,ECCENTRICITY,INCLINATION,RA_OF_ASC_NODE,ARG_OF_PERICENTER,MEAN_ANOMALY,EPHEMERIS_TYPE,CLASSIFICATION_TYPE,NORAD_CAT_ID,ELEMENT_SET_NO,REV_AT_EPOCH,BSTAR,MEAN_MOTION_DOT,MEAN_MOTION_DDOT
LINGQIAO VIDEO A,2015-057B,2026-05-12T04:39:30.843936,14.77340441,.0017716,97.6624,128.7753,31.0286,329.1968,0,U,40959,999,57009,.25999E-4,.137E-5,0
LINGQIAO VIDEO B,2015-057C,2026-05-12T05:47:09.466656,14.77447618,.0017868,97.6591,129.9929,31.0635,329.1629,0,U,40960,999,57014,.13151E-3,.89E-5,0
JILIN-1,2015-057D,2026-05-12T03:14:38.395968,14.78098837,.0017632,97.6512,133.2944,25.9780,334.2313,0,U,40961,999,57028,.79725E-4,.529E-5,0
FOX-1A (AO-85),2015-058D,2026-05-12T01:30:00.772416,14.90752582,.0128946,64.7768,31.2284,70.7546,290.7464,0,U,40967,999,10818,.19751E-3,.2101E-4,0
SINOD-D 1,2015-058E,2026-05-12T00:58:49.706976,14.95618001,.0117423,64.7770,12.0834,67.5591,293.7910,0,U,40968,999,11125,.24226E-3,.2917E-4,0
ELEKTRO-L 2,2015-074A,2026-05-12T04:14:59.370720,1.00272976,.0001518,6.6035,70.9556,273.4476,294.7910,0,U,41105,999,3814,0,-.102E-5,0
DAMPE,2015-078A,2026-05-12T05:09:17.689248,15.30692102,.0011214,97.4572,137.5076,195.9316,164.1573,0,U,41173,999,57904,.22073E-4,.578E-5,0
ORBCOMM FM114,2015-081A,2026-05-11T19:36:18.536544,14.58816736,.0001818,47.0034,173.9533,3.4905,356.5993,0,U,41179,999,55244,.68983789E-4,.155E-5,0
ORBCOMM FM110,2015-081D,2026-05-11T19:20:03.870240,14.58820822,.00040524,47.0003,173.4573,267.4531,92.5891,0,U,41182,999,55231,.82755189E-4,.219E-5,0
ORBCOMM FM112,2015-081F,2026-05-12T02:51:04.002048,14.58755259,.000239,46.9986,80.7922,29.4996,330.6024,0,U,41184,999,55368,.10634E-3,.33E-5,0
ORBCOMM FM113,2015-081G,2026-05-12T03:55:00.276096,14.58817238,.0001408,47.0005,80.9450,9.3378,350.7534,0,U,41185,999,55367,.84886E-4,.23E-5,0
ORBCOMM FM108,2015-081J,2026-05-11T23:43:52.669056,14.58818501,.0002326,47.0064,353.3349,22.9425,337.1564,0,U,41187,999,55479,.12001E-3,.395E-5,0
ORBCOMM FM117,2015-081K,2026-05-12T00:32:44.541600,14.58816441,.0002734,47.0027,351.8193,31.3633,328.7415,0,U,41188,999,55484,.11594E-3,.376E-5,0
ORBCOMM FM116,2015-081L,2026-05-11T14:13:14.121984,14.58824755,.000239,47.0021,83.6406,271.4008,88.6604,0,U,41189,999,55359,.75882E-4,.187E-5,0
HORYU-4,2016-012D,2026-05-11T15:58:20.937504,15.77715483,.00056421,30.9894,342.9931,13.7022,346.3788,0,U,41340,999,56501,.69384794E-3,.12335E-2,0
ZIYUAN 3-02 (ZY 3-02),2016-033A,2026-05-12T03:30:38.308608,15.21443091,.0013814,97.3840,208.6093,65.3320,294.9353,0,U,41556,999,55250,.15296E-3,.3374E-4,0
CARTOSAT-2C,2016-040A,2026-05-12T03:57:07.556256,15.19199320,.0008356,97.4507,192.6321,258.0805,101.9492,0,U,41599,999,54824,.15239E-3,.3141E-4,0
LAPAN-A3,2016-040E,2026-05-12T05:23:39.778944,15.32874842,.0011628,97.1489,129.5605,136.9814,223.2340,0,U,41603,999,54930,.74342E-4,.229E-4,0
GAOFEN-3,2016-049A,2026-05-12T05:10:16.799808,14.42210701,.0000967,98.4028,140.5441,75.7410,284.3887,0,U,41727,999,51346,.37979E-4,.82E-6,0
CAS-2T & KS-1Q,2016-066G,2026-05-12T02:01:47.431200,14.44589847,.0341043,98.3824,208.2293,239.0044,117.7235,0,U,41847,999,49958,.81571E-4,.509E-5,0
YUNHAI-1 01,2016-068A,2026-05-12T04:47:36.371328,14.32713858,.0006196,98.5852,143.5406,130.8407,229.3315,0,U,41857,999,49667,.16249E-3,.398E-5,0
RESOURCESAT-2A,2016-074A,2026-05-12T04:13:05.159424,14.21605431,.000246,98.7529,205.9722,154.7227,205.4071,0,U,41877,999,48918,.93544E-4,.161E-5,0
TANSAT,2016-081A,2026-05-12T03:06:57.540096,14.59919789,.002178,98.5373,131.3238,62.0423,298.2977,0,U,41898,999,49936,.90537E-4,.384E-5,0
JILIN-1 03,2017-002B,2026-05-12T04:24:57.123936,15.40698309,.000394,97.1963,139.8001,317.2561,42.8379,0,U,41914,999,51631,.20416E-3,.8254E-4,0
CARTOSAT-2D,2017-008A,2026-05-12T04:44:02.978016,15.19215902,.0004918,97.4129,192.1691,21.6105,338.5336,0,U,41948,999,51211,.1208E-3,.2476E-4,0
CARTOSAT-2E,2017-036C,2026-05-12T03:34:13.425600,15.19302504,.0004432,97.4299,192.5392,81.9517,278.2221,0,U,42767,999,49267,.13594E-3,.2802E-4,0
